GPS BIIR-2  (PRN 13)    
1 24876U 97035A   23160.34508582  .00000078  00000+0  00000+0 0  9991
2 24876  55.5727 141.7420 0068465  50.8183 309.7708  2.00563927189818
GPS BIIR-4  (PRN 20)    
1 26360U 00025A   23161.46109403 -.00000069  00000+0  00000+0 0  9998
2 26360  54.3583  64.1244 0041072 198.1007 334.1850  2.00576770169147
GPS BIIR-8  (PRN 16)    
1 27663U 03005A   23160.25065299 -.00000023  00000+0  00000+0 0  9996
2 27663  55.2898 258.8770 0131481  44.5505 315.1129  2.00570931149161
GPS BIIR-9  (PRN 21)    
1 27704U 03010A   23160.70058594 -.00000087  00000+0  00000+0 0  9998
2 27704  55.1084   8.8647 0248447 316.6674 225.0849  2.00570803147973
GPS BIIR-11 (PRN 19)    
1 28190U 04009A   23160.55358186 -.00000059  00000+0  00000+0 0  9999
2 28190  55.7600 319.9130 0092788 133.8964 241.2440  2.00569382140815
GPS BIIR-13 (PRN 02)    
1 28474U 04045A   23159.96021758 -.00000084  00000+0  00000+0 0  9997
2 28474  55.4341   9.1869 0175187 286.6858  72.2917  1.99885382136285
GPS BIIRM-1 (PRN 17)    
1 28874U 05038A   23160.75824267 -.00000059  00000+0  00000+0 0  9991
2 28874  55.8132 317.3539 0137059 279.2514 264.9897  2.00551781129692
GPS BIIRM-2 (PRN 31)    
1 29486U 06042A   23160.28987487  .00000058  00000+0  00000+0 0  9997
2 29486  54.6871 195.1065 0102006  29.8712  76.3001  2.00575026122253
GPS BIIRM-3 (PRN 12)    
1 29601U 06052A   23160.56174878 -.00000026  00000+0  00000+0 0  9996
2 29601  55.3077 257.8192 0085452  78.6296 282.3674  2.00572838121273
GPS BIIRM-4 (PRN 15)    
1 32260U 07047A   23160.36927323  .00000054  00000+0  00000+0 0  9995
2 32260  53.4337 125.7464 0147530  68.5617 292.9758  2.00556075114673
GPS BIIRM-5 (PRN 29)    
1 32384U 07062A   23159.59987719 -.00000052  00000+0  00000+0 0  9996
2 32384  55.9438 318.2083 0024276 142.5520 151.9991  2.00553922113414
GPS BIIRM-6 (PRN 07)    
1 32711U 08012A   23161.28162719  .00000064  00000+0  00000+0 0  9992
2 32711  54.4534 193.9183 0175647 234.9378 123.4605  2.00555030111634
GPS BIIRM-8 (PRN 05)    
1 35752U 09043A   23161.41672355 -.00000056  00000+0  00000+0 0  9994
2 35752  55.3607  71.1545 0057797  65.5098  47.9057  2.00562807101229
GPS BIIF-1  (PRN 25)    
1 36585U 10022A   23161.08968009 -.00000028  00000+0  00000+0 0  9994
2 36585  54.6027 253.0728 0108835  59.6940 293.9555  2.00557405 95468
GPS BIIF-2  (PRN 01)    
1 37753U 11036A   23161.27237282 -.00000088  00000+0  00000+0 0  9997
2 37753  56.7259  14.8012 0127000  55.0875 154.6777  2.00567709 87151
GPS BIIF-3  (PRN 24)    
1 38833U 12053A   23160.96498046  .00000067  00000+0  00000+0 0  9995
2 38833  53.5135 188.7221 0137366  50.7094 310.5550  2.00565800 78201
GPS BIIF-4  (PRN 27)    
1 39166U 13023A   23160.82524051 -.00000059  00000+0  00000+0 0  9996
2 39166  55.4298 313.5820 0114233  41.5353 319.3183  2.00564446 73747
GPS BIIF-5  (PRN 30)    
1 39533U 14008A   23160.32439848  .00000057  00000+0  00000+0 0  9999
2 39533  53.6014 194.2951 0066582 214.0413 145.5898  2.00573386 67543
GPS BIIF-6  (PRN 06)    
1 39741U 14026A   23160.10601193 -.00000084  00000+0  00000+0 0  9991
2 39741  56.6802  14.3695 0029007 314.1246  45.6822  2.00563360 66396
GPS BIIF-7  (PRN 09)    
1 40105U 14045A   23160.69556494  .00000068  00000+0  00000+0 0  9996
2 40105  54.7888 132.5341 0021731 113.6966 246.5083  2.00571673 64837
GPS BIIF-8  (PRN 03)    
1 40294U 14068A   23160.07255062 -.00000039  00000+0  00000+0 0  9998
2 40294  56.1030  73.8861 0047044  57.9478 302.5213  2.00565782 63064
GPS BIIF-9  (PRN 26)    
1 40534U 15013A   23161.20188464 -.00000026  00000+0  00000+0 0  9999
2 40534  53.5013 249.8634 0078117  25.1082 335.3167  2.00559833 60125
GPS BIIF-10 (PRN 08)    
1 40730U 15033A   23161.36277593 -.00000064  00000+0  00000+0 0  9990
2 40730  54.9195 312.2164 0084159  13.9994 346.2227  2.00559700 57893
GPS BIIF-11 (PRN 10)    
1 41019U 15062A   23159.92148162 -.00000038  00000+0  00000+0 0  9992
2 41019  56.0875  73.7406 0086673 221.8086 137.5406  2.00562097 55683
GPS BIIF-12 (PRN 32)    
1 41328U 16007A   23161.00806632  .00000070  00000+0  00000+0 0  9995
2 41328  54.9958 133.2791 0071286 234.9699 124.3379  2.00553983 53756
GPS BIII-1  (PRN 04)    
1 43873U 18109A   23160.38971851  .00000071  00000+0  00000+0 0  9994
2 43873  55.1726 135.8001 0024519 194.7750 330.4091  2.00564596 32939
GPS BIII-2  (PRN 18)    
1 44506U 19056A   23160.02516944 -.00000085  00000+0  00000+0 0  9995
2 44506  55.8023  14.8958 0032890 182.6954 340.0171  2.00564029 27920
GPS BIII-3  (PRN 23)    
1 45854U 20041A   23160.09811715 -.00000042  00000+0  00000+0 0  9992
2 45854  55.8089  72.1715 0032433 186.5076 332.1910  2.00565186 21896
GPS BIII-4  (PRN 14)    
1 46826U 20078A   23160.59547920 -.00000025  00000+0  00000+0 0  9992
2 46826  54.3533 255.5909 0032734 191.7042 301.6672  2.00562565 19375
GPS BIII-5  (PRN 11)    
1 48859U 21054A   23160.39732620 -.00000088  00000+0  00000+0 0  9995
2 48859  55.3173  16.7083 0009599 207.4185 323.3939  2.00554008 14612
GPS BIII-6  (PRN 28)    
1 55268U 23009A   23161.09372303  .00000066  00000+0  00000+0 0  9990
2 55268  55.0927 191.7956 0004432 101.9732 256.3285  2.00561062  3118
